{
  "norad_id": 59918,
  "name": "2024-105B",
  "history": [
    {
      "epoch": "2026-04-10T06:51:33.240096Z",
      "apogee_km": 521.3818726180634,
      "perigee_km": 501.7444358564471,
      "latitude_deg": -4.6594249848623806e-05,
      "longitude_deg": 174.1045764971972,
      "height_km": 519.1328936648873,
      "semi_major_axis_km": 6889.7001542372545,
      "eccentricity": 0.00142513,
      "inclination_deg": 97.5876,
      "raan_deg": 115.5149,
      "arg_perigee_deg": 117.3833,
      "mean_anomaly_deg": 242.8852,
      "mean_motion_rev_day": 15.1810664
    },
    {
      "epoch": "2026-04-11T20:49:30.188928Z",
      "apogee_km": 521.3015249663222,
      "perigee_km": 501.66335371642435,
      "latitude_deg": -2.3954349069195486e-05,
      "longitude_deg": -35.3557171438498,
      "height_km": 518.3312690770911,
      "semi_major_axis_km": 6889.619439341373,
      "eccentricity": 0.0014252,
      "inclination_deg": 97.5873,
      "raan_deg": 117.1011,
      "arg_perigee_deg": 112.748,
      "mean_anomaly_deg": 247.5261,
      "mean_motion_rev_day": 15.18133318
    },
    {
      "epoch": "2026-04-13T07:37:35.374656Z",
      "apogee_km": 521.2638505252353,
      "perigee_km": 501.5751515388465,
      "latitude_deg": 3.801247345490779e-05,
      "longitude_deg": 162.64752254450784,
      "height_km": 517.575621883659,
      "semi_major_axis_km": 6889.556501032041,
      "eccentricity": 0.00142888,
      "inclination_deg": 97.5869,
      "raan_deg": 118.5552,
      "arg_perigee_deg": 108.3894,
      "mean_anomaly_deg": 251.8895,
      "mean_motion_rev_day": 15.18154121
    },
    {
      "epoch": "2026-04-14T20:00:33.692256Z",
      "apogee_km": 521.2598718659465,
      "perigee_km": 501.4732176853504,
      "latitude_deg": 1.0871468788177856e-05,
      "longitude_deg": -23.069553413312878,
      "height_km": 516.7682134482988,
      "semi_major_axis_km": 6889.503544775648,
      "eccentricity": 0.001436,
      "inclination_deg": 97.5865,
      "raan_deg": 120.0753,
      "arg_perigee_deg": 103.7566,
      "mean_anomaly_deg": 256.5267,
      "mean_motion_rev_day": 15.18171625
    },
    {
      "epoch": "2026-04-15T21:19:08.153184Z",
      "apogee_km": 521.2310796251877,
      "perigee_km": 501.43212475621203,
      "latitude_deg": -2.111237320459365e-05,
      "longitude_deg": -42.695061555007555,
      "height_km": 516.1878598968772,
      "semi_major_axis_km": 6889.468602190699,
      "eccentricity": 0.0014369,
      "inclination_deg": 97.5861,
      "raan_deg": 121.1328,
      "arg_perigee_deg": 100.5227,
      "mean_anomaly_deg": 259.7626,
      "mean_motion_rev_day": 15.18183175
    },
    {
      "epoch": "2026-04-16T21:02:47.398272Z",
      "apogee_km": 521.1897825576989,
      "perigee_km": 501.4047052959904,
      "latitude_deg": -6.744014302112205e-06,
      "longitude_deg": -38.59143937171153,
      "height_km": 515.6547923082758,
      "semi_major_axis_km": 6889.434243926845,
      "eccentricity": 0.0014359,
      "inclination_deg": 97.5859,
      "raan_deg": 122.1244,
      "arg_perigee_deg": 97.6075,
      "mean_anomaly_deg": 262.679,
      "mean_motion_rev_day": 15.18194532
    },
    {
      "epoch": "2026-04-17T23:56:15.156096Z",
      "apogee_km": 521.1255013327991,
      "perigee_km": 501.3794088521918,
      "latitude_deg": 4.9272129490115454e-05,
      "longitude_deg": -81.93787893179957,
      "height_km": 515.0364215520021,
      "semi_major_axis_km": 6889.389455092495,
      "eccentricity": 0.00143308,
      "inclination_deg": 97.5857,
      "raan_deg": 123.248,
      "arg_perigee_deg": 94.2773,
      "mean_anomaly_deg": 266.0099,
      "mean_motion_rev_day": 15.18209337
    },
    {
      "epoch": "2026-04-18T20:30:03.852000Z",
      "apogee_km": 521.0793427520766,
      "perigee_km": 501.3454902834037,
      "latitude_deg": 8.51379083286904e-05,
      "longitude_deg": -30.37589731646036,
      "height_km": 514.5565540976227,
      "semi_major_axis_km": 6889.34941651774,
      "eccentricity": 0.0014322,
      "inclination_deg": 97.5856,
      "raan_deg": 124.1074,
      "arg_perigee_deg": 91.7232,
      "mean_anomaly_deg": 268.5643,
      "mean_motion_rev_day": 15.18222572
    },
    {
      "epoch": "2026-04-19T20:13:40.587168Z",
      "apogee_km": 521.0419069342561,
      "perigee_km": 501.2682607951483,
      "latitude_deg": -6.6636341277343e-05,
      "longitude_deg": -26.261769438629223,
      "height_km": 514.0019482892903,
      "semi_major_axis_km": 6889.292083864702,
      "eccentricity": 0.0014351,
      "inclination_deg": 97.5858,
      "raan_deg": 125.099,
      "arg_perigee_deg": 88.8385,
      "mean_anomaly_deg": 271.4492,
      "mean_motion_rev_day": 15.18241524
    },
    {
      "epoch": "2026-04-20T15:12:33.272352Z",
      "apogee_km": 521.0057598982057,
      "perigee_km": 501.22960319445247,
      "latitude_deg": -5.6730186114389846e-06,
      "longitude_deg": 49.032464937550856,
      "height_km": 513.5678840916675,
      "semi_major_axis_km": 6889.254681546328,
      "eccentricity": 0.00143529,
      "inclination_deg": 97.586,
      "raan_deg": 125.8923,
      "arg_perigee_deg": 86.5383,
      "mean_anomaly_deg": 273.7492,
      "mean_motion_rev_day": 15.18253888
    },
    {
      "epoch": "2026-04-21T21:15:45.362880Z",
      "apogee_km": 520.9131821734554,
      "perigee_km": 501.1894360444767,
      "latitude_deg": -2.8661478023561258e-05,
      "longitude_deg": -41.746059923051895,
      "height_km": 512.8522392298514,
      "semi_major_axis_km": 6889.188309108966,
      "eccentricity": 0.0014315,
      "inclination_deg": 97.5861,
      "raan_deg": 127.1484,
      "arg_perigee_deg": 82.7377,
      "mean_anomaly_deg": 277.5483,
      "mean_motion_rev_day": 15.18275829
    },
    {
      "epoch": "2026-04-22T20:59:19.108608Z",
      "apogee_km": 520.8090073469293,
      "perigee_km": 501.2011311893775,
      "latitude_deg": 4.783909769213111e-05,
      "longitude_deg": -37.619473538128204,
      "height_km": 512.3063317059696,
      "semi_major_axis_km": 6889.142069268153,
      "eccentricity": 0.0014231,
      "inclination_deg": 97.5862,
      "raan_deg": 128.14,
      "arg_perigee_deg": 79.7361,
      "mean_anomaly_deg": 280.5477,
      "mean_motion_rev_day": 15.18291115
    },
    {
      "epoch": "2026-04-23T14:23:15.258624Z",
      "apogee_km": 520.7325479588972,
      "perigee_km": 501.19877292931506,
      "latitude_deg": 3.495473208627009e-05,
      "longitude_deg": 61.40911971083738,
      "height_km": 511.92304951419015,
      "semi_major_axis_km": 6889.102660444106,
      "eccentricity": 0.00141773,
      "inclination_deg": 97.5862,
      "raan_deg": 128.8671,
      "arg_perigee_deg": 77.6364,
      "mean_anomaly_deg": 282.6456,
      "mean_motion_rev_day": 15.18304143
    },
    {
      "epoch": "2026-04-24T20:26:23.767008Z",
      "apogee_km": 520.630325440342,
      "perigee_km": 501.1619178385881,
      "latitude_deg": 5.534664443715583e-05,
      "longitude_deg": -29.354842780535613,
      "height_km": 511.2313740353876,
      "semi_major_axis_km": 6889.033121639464,
      "eccentricity": 0.001413,
      "inclination_deg": 97.5861,
      "raan_deg": 130.1228,
      "arg_perigee_deg": 73.8095,
      "mean_anomaly_deg": 286.4693,
      "mean_motion_rev_day": 15.18327132
    },
    {
      "epoch": "2026-04-25T20:09:54.409248Z",
      "apogee_km": 520.5576095531242,
      "perigee_km": 501.09903809944444,
      "latitude_deg": 4.3002600554863766e-05,
      "longitude_deg": -25.21547578236058,
      "height_km": 510.69453039800226,
      "semi_major_axis_km": 6888.9653238262845,
      "eccentricity": 0.0014123,
      "inclination_deg": 97.5861,
      "raan_deg": 131.1142,
      "arg_perigee_deg": 70.8979,
      "mean_anomaly_deg": 289.3783,
      "mean_motion_rev_day": 15.18349546
    },
    {
      "epoch": "2026-04-26T23:03:11.521728Z",
      "apogee_km": 520.4416622221552,
      "perigee_km": 501.0545484256463,
      "latitude_deg": 1.3123984755517366e-05,
      "longitude_deg": -68.51742778757469,
      "height_km": 510.1193071920111,
      "semi_major_axis_km": 6888.8851053239005,
      "eccentricity": 0.00140713,
      "inclination_deg": 97.5856,
      "raan_deg": 132.2378,
      "arg_perigee_deg": 67.6892,
      "mean_anomaly_deg": 292.5832,
      "mean_motion_rev_day": 15.18376067
    }
  ]
}